Station ID,Property/Business Name,Street Address,City,Zip Code,Island,Charge Fees,Charger Location,Hours of Operation,Number of Chargers,Number of Ports,Charger Level(s),Charger Fee,Parking Fee,Manufacturer(s),Notes,Latitude,Longitude,Location
629,The Shops at Mauna Lani,68-1330 Mauna Lani Drive,Kamuela,96743,Hawaii,Paid,"Kohala Coast, The Shops at Mauna Lani - Behind Snorkel Bob's",24,1,2,3,"Mid day (9am-5pm) = $0.51/kWh, On-Peak (5pm-10pm) = $0.63/kWh, Off-Peak (10pm-9am) = $0.61/kWh",N/A,Efacec,User will need to download Greenlots smartphone application to use charger. Charger will be retrofit for pay per charge using credit card swipe in future.,19.94597,-155.86624,"(19.94597, -155.86624)"
659,Pacific Guardian Tower,1440 Kapiolani Blvd,Honolulu,96814,Oahu,Free,Charger is located by the entry to the garage- by the parking booth,7am-6pm,1,1,2,Free,hourly charge,Eaton,,21.29361,-157.84262,"(21.29361, -157.84262)"
545,Tony Nissan,94-1299 Ka Uka Boulevard,Waipahu,96797,Oahu,Free,Enter dealer from Moaniani St.,9:00am to 8:00pm,2,2,2,Free,Free,AeroVironment,Restricted to Leafs only.,21.427693,-157.997835,"(21.427693, -157.997835)"
855,Westin Kaâ€™anapali Ocean Resort (KOR) Villas Parking Garage,6 Kai Ala Drive,Lahaina,96761,Maui,Paid,On site,park hours,1,2,2,$1/hr,may apply,OpConnect,,20.93736,-156.69127,"(20.93736, -156.69127)"
803,Pioneer Ace Hardware,480 Kamokila Boulevard,Kapolei,96707,Oahu,Free,In front of Panda Express,7 to 19,1,1,2,Free,may apply,AeroVironment,,21.3299,-158.08643,"(21.3299, -158.08643)"
273,Mauna Kea Beach Resort,62-100 Mauna Kea Beach Dr.,Waimea,96743,Hawaii,Paid,"The charging stations are located at the south end of the parking lot, near the Valet area",24/7,2,4,2,$2/hour or any fraction thereof,"Free Self-Park and Valet during the day,  Registered Guests  have a $20/night parking fee.",OpConnect,"The OpConnect charging stations accept debit cards, credit cards, the Wright Express Fleet Fueling card, and the OpConnect card.  Parking fees may apply.",20.00638,-155.82445,"(20.00638, -155.82445)"
343,"Aulani A Disney Resort and Spa, Ko Olina",92-1185 Aliinui Drive,Kapolei,96707,Oahu,Free,See Valet for Assistance,24/7,9,25,2,Free,,ChargePoint,"To start a charge session download charge point app and follow directions, or call +1-888-758-4389. Free parking (4 hours max) with restaurant purchase of $35 or more.",21.339614,-158.123265,"(21.339614, -158.123265)"
823,Hale Pawaa,1401 S. Beretania St.,Honolulu,96814,Oahu,Free,in the parking structure,park hours,1,1,2,Free,$5/hr ($2/hr with validation),Eaton,Charging is limited to 2 hours by request (via note on charger) from management.,21.29964,-157.8394,"(21.29964, -157.8394)"
845,Wyndham Waikiki Beachwalk Hotel,227 Lewers Street,Honolulu,96815,Oahu,Paid,Vallet,24/7,1,1,3,$6 with parking,$6 without validation,AeroVironment,,21.27904,-157.8307,"(21.27904, -157.8307)"
263,University of Hawaii at Hilo,200 W. Kawili Street,Hilo,96720,Hawaii,Free,"The charging station is located at the life science building, 3344",24/7,1,1,2,Free,Free for EV Drivers while Charging.,Legrand,,19.70127,-155.07925,"(19.70127, -155.07925)"
261,Hilo International Airport,2450 Kekuanaoa St,Hilo,96720,Hawaii,Free,The charging stations.are located in the parking lot close to terminal entrance,5:00am - 10:00pm,2,2,2,Free,"24 hours $10.  16-30 minutes is $1, 31 minutes- 60 minutes $2, 61 minutes-2 hours $5, 2 hours-3 hours $8.",Recharge Power,No overnight parking at the charging station.,19.71471,-155.03988,"(19.71471, -155.03988)"
829,Holiday Inn Waikiki Beachcomber Resort - Broken,2300 Kalakaua Ave.,Honolulu,96815,Oahu,Free,Drive up the parking ramp and see valet for directions and key.,24,1,1,2,Free,may apply,AeroVironment,,21.27825,-157.82734,"(21.27825, -157.82734)"
643,BMW of Kona,74-5533 Loloku Street,Kailua Kona,96740,Hawaii,Free,Charger is in the outside parking lot,24/7,1,2,2,Free,Free,ChargePoint,,19.64405,-156.00273,"(19.64405, -156.00273)"
583,Kukui Grove Center,3-2600 Kaumualii Hwy,Lihue,96766,Kauai,Free,"One charging station is next to Starbucks, and one station is next to Payless Shoes",24/7,2,2,2,Free,Free,AeroVironment,"To operate the charging station users must contact the Security Officer on duty by dialing the phone number listed on the charging station.  One charger may be down, as of 8/26/15",21.96955,-159.37797,"(21.96955, -159.37797)"
851,Kamahamaha Schools Community Learning Center,87-0790 Kulauku Street,Waianae,96792,Oahu,Paid,Parking lot,park hours,2,4,2,$2.25/hr,may apply,OpConnect,,21.40689,-158.17091,"(21.40689, -158.17091)"
553,Fairmont Orchid,1 N Kaniku Dr,Kamuela,96743,Hawaii,Free,"Guest parking lot, right side.",24/7,2,2,2,Free,Free,AeroVironment,Parking fees may apply.,19.951204,-155.860291,"(19.951204, -155.860291)"
295,5A Rent A Space Business Services Center,3600 Lower Honoapiilani Road,Lahaina,96761,Maui,Paid,Charging station located next to the sidewalk across the parking lot from Ohana Taco.,24/7,1,1,2,$2/hour.  Credit Card required.,Free,Schneider Electric,Charging fee is $2/hour.  Credit Card required to use this charge spot.,20.952676,-156.685993,"(20.952676, -156.685993)"
759,5th Circuit Court,3970 Kaana St,Lihue,96766,Kauai,Free,Southwest corner of the building; Gated,24/7,1,1,1,Free,Free,ChargePoint,,21.97687,-159.35392,"(21.97687, -159.35392)"
577,Kuakini Medical Center,347 N Kuakini St,Honolulu,96817,Oahu,Paid,The charging station is located at the entrance first floor,24/7,1,1,2,$2/hr,parking fees may apply,Eaton,parking fees may apply,21.32107,-157.85677,"(21.32107, -157.85677)"
677,Whole Foods- Maui Mall,70 Kaahumanu Ave #B,Kahului,96732,Maui,Free,Maui Mall,24/7,2,2,2,Free,Free,Volta,,20.89105,-156.46519,"(20.89105, -156.46519)"
745,Hawaii Palm Properties in Hawi,54-3848 Akoni Pule Highway,Kapaau,96755,Hawaii,Free,Parking,9am - 4pm,1,1,2,Free,Free,Manufacturer/Network Unknown,Free for customers; others by honor donation.,20.23055,-155.80206,"(20.23055, -155.80206)"
847,Leeward Community College,96-045 Ala Ike,Honolulu,96814,Oahu,Free,Parkiing lot,-,3,6,2,Free,may apply,OpConnect,,21.39259,-157.98383,"(21.39259, -157.98383)"
627,University of Hawaiâ€˜i Maui College,Wahinepio Ave,Kahului,96732,Maui,Free,Parking lot at Kaaike building under PV Array.,7 am to 9 pm,4,8,2,Free,Free,ChargePoint,"Chargers on a first come first serve basis.ChargePoint Chargers require a ChargePoint Card and/or ChargePoint App .Charging time limited to 4 hours or full charge, which ever comes first.",20.89238,-156.48077,"(20.89238, -156.48077)"
815,Gold Bond Building,677 Ala Moana Blvd,Honolulu,96813,Oahu,Paid,Charge Spot located on the 7th floor.,park hours,1,1,2,,,AeroVironment,,21.29744,-157.86231,"(21.29744, -157.86231)"
699,"County Building, Wailuku",200 South High Street,Wailuku,96793,Maui,Paid,The chargers are located directly in front of the courthouse,24/7,1,1,2,$15 montly fee unlimited use for JumpSmart Volunteers and $30 for non-volunteers unlimited use,Free,AeroVironment,,20.88543,-156.50404,"(20.88543, -156.50404)"
681,Kapolei Village Center,4850 Kapolei Parkway,Kapolei,96707,Oahu,Paid,Makai of Foodland- between cosmic beauty,24/7,1,2,2,$2.25/hr,may apply,OpConnect,,21.32989,-158.07858,"(21.32989, -158.07858)"
797,Naia,92-149 Waipahe Pl,Kapolei,96707,Oahu,Free,On the location,24,1,2,2,Free,may apply,ChargePoint,,21.33114,-158.12154,"(21.33114, -158.12154)"
779,Rainbow Drive-in,3308 Kanaina Ave,Honolulu,96815,Oahu,Free,Parking lot,Parking lot hours,1,1,2,Free,may apply,Bosch,,21.27596,-157.81454,"(21.27596, -157.81454)"
817,Salt at Kaka'ako,327 Keawe St.,Honolulu,96813,Oahu,Free,Two wall mounted chargers located just to the right immediately after entering the parking structure.,park hours,2,2,2,Free,may apply,Volta,,21.29842,-157.86159,"(21.29842, -157.86159)"
813,Costco (Alakawa St.),525 Alakawa St,Honolulu?,96817,Oahu,Paid,Parking Lot,-,1,1,2,$0.25 KWh,may apply,SemaConnect,,21.31863,-157.87115,"(21.31863, -157.87115)"
793,Windward Community College,45-720 Keaahala Rd,Kaneohe,96744,Oahu,Free,Around second parking lot,24,1,2,2,Free,may apply,OpConnect,,21.40816,-157.81234,"(21.40816, -157.81234)"
805,Tesla Service Center,94-480 Akoki Street,Waipahu,96797,Oahu,Free,In the service center,24/7,1,1,2,Free,Free,Tesla,The Tesla HPWC is capable of 240 volts/80 amps. The charger is for Model S only.,21.38817,-158.00888,"(21.38817, -158.00888)"
835,Kapiolani Community College Parking,4303 Diamond Head Rd,Honolulu,96816,Oahu,Paid,Parking Lot,24,1,2,2,$2/hr,,OpConnect,,21.27096,-157.79942,"(21.27096, -157.79942)"
525,Marriott's Ko Olina Beach Club,92-149 Waipahe Pl,Kapolei,96707,Oahu,Free,"1 charging station each in Hale Moana Parking Tower, Hale Naia, and Hale Kona's ground floor valet services",24/7,3,6,2,Free,$15 valet parking for day guests,ChargePoint,Day guests go to valet services at Hale Kona Parking. $15 parking includes charge. Registered Guests can use charging stations in Hale Moana and Hale Naia parking. Will be issued a charge card to access charger,21.33114,-158.121542,"(21.33114, -158.121542)"
777,801 PHASE 1,801 South St,Honolulu,96813,Oahu,Free,The station is located in Visitor Parking,24/7,1,2,2,Free,Free parking for the first 4 hours.,ChargePoint,,21.3027,-157.85648,"(21.3027, -157.85648)"
555,Enterprise Rent A Car,3073 Aukele ST,Lihue,96766,Kauai,Free,The charging stations are located in the parking lot.,7:00am-10:45pm,2,2,2,Free,Free,AeroVironment,"Restricted to customers, when available.  Priority given to fleet vehicles.",21.96908,-159.355776,"(21.96908, -159.355776)"
447,Queenâ€™s Physician Office Building,1380 Lusitana street,Honolulu,96813,Oahu,Free,"1 Charger at POB 1 lot on Lusitaina St. Main entry Makai side level 3, 2nd Charger at Miller St. garage across emergency room level B2 near cashiers booth",24/7,3,6,2,$2.00/hr,Patients $1/half hour max 5$. Visitors can get validation $5 flat rate.,ChargePoint,Valet must activate charging station.,21.30838,-157.85314,"(21.30838, -157.85314)"
853,Aloha Stadium,99-500 Salt Lake Blvd,Aiea,96701,Oahu,Paid,"nter the Main Salt Lake Gate 1, turn right at sections 3D and 4D, make a right turn at 2A and proceed to park in the marked stall.",park hours,1,2,2,$2.25/hr,may apply,OpConnect,,21.37277,-157.92998,"(21.37277, -157.92998)"
795,Kailua Town Center,609 Kailua Road,Kailua,96734,Oahu,Free,Across from entrance near handicap stalls,24,1,1,2,Free,may apply,Volta,,21.39361,-157.742,"(21.39361, -157.742)"
749,Walmart #3883 - Kapolei HI,91-600 Farrington Highway,Kapolei,96707,Oahu,Paid,Parking Lot,24/7,1,1,2,"Blink Plus: $0.69 per kwh, Blink Guest: $0.79 per kwh",N/A,Blink,,21.34207,-158.07542,"(21.34207, -158.07542)"
831,Marriott Waikiki,2552 Kalakaua Avenue,Honolulu,96815,Oahu,Paid,The charging stations are located on the third floor.,24,1,1,2,Free,"On-site parking, fee: $8 hourly, $32 daily",AeroVironment,,21.27314,-157.82263,"(21.27314, -157.82263)"
811,Honolulu Community College,874 Dillingham Blvd,Honolulu,96817,Oahu,Free,Parking Lot,park hours,1,2,2,Free,may apply,OpConnect,,21.32044,-157.86921,"(21.32044, -157.86921)"
765,Target Corp Maui - Kahului,100 Ho'okele St,Kahului,96732,Maui,Free,Parking lot,24/7,1,2,2,Free,"First 2 hours free, $2/hr threafter",ChargePoint,,20.87526,-156.45665,"(20.87526, -156.45665)"
641,BMW of Maui,410 Koloa Street,Kahului,96732,Maui,Free,The charger is located in the outside parking lot,24/7,1,2,2,Free,Free,ChargePoint,Activate charger with ChargePoint Network card or call the number listed on the front of the charger for access,20.88712,-156.4543,"(20.88712, -156.4543)"
763,Kahekili Beach Park,65 Kai Ala Dr,Lahaina,96761,Maui,Paid,Parking lot,Park hours,1,2,2,$2.25 per Hour,may apply,OpConnect,,20.9365,-156.69214,"(20.9365, -156.69214)"
391,Kahala Mall,4211 Waialae Ave,Honolulu,96816,Oahu,Free,The charging stations.are located across from Whole Foods on the 1st floor,"Mon-Sat 10:00am-9:00pm, Sun 10:00am-5:00pm",2,2,2,Free,Free,Volta,,21.27739,-157.78607,"(21.27739, -157.78607)"
675,Target- Hawaii-Kona,74-5455 Makala Blvd,Kailua Kona,96740,Hawaii,Free,Charging Station is near the exit doors in the middle across from the handicap stalls,6am-11pm,1,2,2,"free for first 2 hours, $2/hr after initial 2hrs",Free,ChargePoint,Need to download ChargePoint App or have Membership card to activate charge session,19.6478,-156.00277,"(19.6478, -156.00277)"
789,Safeway Hokulei Village Lihue Kauai,4454 Nuhou St.,Lihue,96766,Kauai,Free,In parking lot in front of store enterance,24,4,4,2,Free,Free,GE WattStation,,21.96883,-159.38669,"(21.96883, -159.38669)"
881,Kamaaina Nissan,471 Kalanianaole Ave,Hilo,96720,Hawaii,Free,.,Dealership business hours,1,2,2,Free,Free,AeroVironment,only for employees and visitors/customers to Nissan,19.72637,-155.05767,"(19.72637, -155.05767)"
827,Bank of Hawaii,2155 Kalakaua Ave.,Honolulu,96815,Oahu,Free,Parking Lot,-,1,1,2,Free,Free for customers,SemaConnect,standard daily rate is $3.00/hr,21.28039,-157.83044,"(21.28039, -157.83044)"
389,Ka`ahumanu Hale parking Garage  First Circuit Court,564 Pohukaina,Honolulu,96813,Oahu,Paid,"The charging stations are located on the basement floor, first stall, clearly marked",7:00am-5:00pm,1,1,2,$2/hour,Free for EV drivers,Volta,Charging fee is $2/hour.  4 hour limit.,21.3023,-157.861317,"(21.3023, -157.861317)"
761,Kahekili Beach Park,65 Kai Ala Dr,Lahaina,96761,Maui,Paid,Parking lot,Park hours,1,2,1,$2.25 per Hour,,OpConnect,,20.9365,-156.69214,"(20.9365, -156.69214)"
857,Westin Kaâ€™anapali Ocean Resort (KOR) Villas Parking Garage,6 Kai Ala Drive,Lahaina,96761,Maui,Paid,On site,park hours,1,2,1,$1/hr,may apply,OpConnect,,20.93736,-156.69127,"(20.93736, -156.69127)"
591,Home Depot,4600 Kapolei Pkwy,Kapolei,96707,Oahu,Free,The charging stations are in the parking lot.,Mon-Fri 24/7 Sat-Sun 6am-10pm,2,3,2,Free,Free,Schneider Electric,,21.32921,-158.08863,"(21.32921, -158.08863)"
753,Walmart #5274 - Pearl City,1131 Kuala Street,Pearl City,96782,Oahu,Paid,Parking lot,24/7,1,1,2,"Blink Plus: $0.69 per kwh, Blink Guest: $0.79 per kwh",n/a,Blink,,21.39717,-157.9745,"(21.39717, -157.9745)"
841,The Kahana Gateway Shopping Center,4405 Honoapiilani Hwy.,Lahaina,96761,Maui,Paid,located in rear of shopping center underneath the building close to Shell Station and down from Kahana Koin-Op.,24,2,4,2,$2.25/hr,may apply,OpConnect,,20.97192,-156.67813,"(20.97192, -156.67813)"
801,"Costco Wholesale, Kapolei (Broken)",4589 Kapolei Pkwy,Kapolei,96707,Oahu,Free,The left of the entrance,24,1,1,2,Free,Free,SemaConnect,,21.32674,-158.08756,"(21.32674, -158.08756)"
807,Mary Savio Medical Center,98-1247 Kaahumanu St,Aiea,96701,Oahu,Paid,First floor parking on left,park hours,1,1,2,$2 per half hour,may apply,AeroVironment,See the parking attendant,21.38849,-157.95323,"(21.38849, -157.95323)"
547,Marriott's Waiohai Beach Club,2249 Poipu Rd,Koloa,96756,Kauai,Free,First 3 stalls as you enter parking garage,24/7,3,3,2,Free,Free,AeroVironment,Parking fees may apply.  Restricted to registered guests and their visitors.  Parking garage requires key card,21.87506,-159.456768,"(21.87506, -159.456768)"
775,Ward Village,1170 Auahi Street,Honolulu,96814,Oahu,Free,Parking,Parking lot hours,1,2,2,Free,may apply,Volta,,21.2934,-157.85119,"(21.2934, -157.85119)"
751,Walmart #2314 - Waipahu,94-595 Kupuohi St,Waipahu,96797,Oahu,Paid,Parking lot,24/7,1,1,2,"Blink Plus: $0.69 per kwh, Blink Guest: $0.79 per kwh",n/a,Blink,,21.39139,-158.03463,"(21.39139, -158.03463)"
631,Pacific Park Plaza Parking Garage,711 Kapiolani Blvd.,Honolulu,96813,Oahu,Free,Pacific Park Plaza Parking Garage on the 1st floor right next to the stairwell by the garage entrance.,M-F (Non-Holiday):  7:00 AM - 8:00 PM; Sa. (Non-Holiday):  7:30 AM - 5:00 PM; Su. & Holidays:  Closed,1,1,2,Free,$3.00/half-hour,Eaton,"Use of the charge station is limited to 2 hours.  After 2 hours, user must vacate the stall.",21.30141,-157.85559,"(21.30141, -157.85559)"
733,Target- Hilo,391 Makaala Street,Hilo,96720,Hawaii,Free,"In front of store, near ADA spot",24/7,1,2,2,"First two hours free, then $2/hr.",Free,ChargePoint,requires membership card to activate or can call to use credit card,19.70077,-155.05943,"(19.70077, -155.05943)"
769,Akaku Center,333 Dairy Rd,Kahului,96732,Maui,Paid,Parking lot,10:00 am â€“ 6:00 pm,1,2,2,$0.50/hr,may apply,Manufacturer/Network Unknown,,20.8835,-156.45469,"(20.8835, -156.45469)"
839,Four Seasons Hotel at Manele Bay,One Manele Bay Road,Lanai City,96763,Lanai,Free,Located in the employee parking lot,24,1,1,2,Free,Free,AeroVironment,Valet available for hotel guests who have priority.,20.74236,-156.89673,"(20.74236, -156.89673)"
541,Nissan,3039 Aukele Street,Lihue,96766,Kauai,Free,One charger is mounted on the wall to the left of the entrance.  A second charger is available inside the store.,"Mon-Fri 8:00am-6:00pm, Sat 9:00am-5:00pm",2,2,2,Free,Free,AeroVironment,Dealer hours: Mon. - Fri.: 8 a.m. - 6 p.m.; Sat.: 9 a.m. - 5 p.m.; Sun.: 10 a.m. - 3 p.m.,21.968054,-159.356942,"(21.968054, -159.356942)"
311,Kahana Gateway,4405 Honoapiilani Hwy,Kahana,96761,Maui,Paid,The charging stations are located in the rear of the shopping center underneath the building down from the Shell Station and Kahana Koin-Op.,24/7,2,4,2,$2/hour or any fraction thereof,Free,OpConnect,"The OpConnect charging stations accept debit cards, credit cards, the Wright Express Fleet Fueling card, and the OpConnect card.",20.972149,-156.677334,"(20.972149, -156.677334)"
683,Home Depot- Lihue,4320 Nuhou St,Lihue,96766,Kauai,Free,"first stall, in front of store",Monday-Saturday 6am-9pm Sunday 7am-7pm,1,1,2,Free,,Schneider Electric,,21.96832,-159.38206,"(21.96832, -159.38206)"
755,BMW of Hawaii,825 Kapiolani Blvd,Honolulu,96813,Oahu,Free,At the dealership,24/7,1,2,2,Free,Free,ChargePoint,,21.29958,-157.85373,"(21.29958, -157.85373)"
529,Ward Village Parking structure- Ward Theater,1044 Auahi Street,Honolulu,96814,Oahu,Free,Ward Theater,Mon-Sun 9:00am-9:30pm,2,2,2,Free,Free,Volta,4hrs charging allowed,21.29403,-157.85341,"(21.29403, -157.85341)"
509,Kaiser Permanente Honolulu Clinic,1010 Pensacola St,Honolulu,96797,Oahu,Free,The charging stations are located on the 3rd Floor,24/7,6,6,2,Free,,Volta,,21.3011,-157.84615,"(21.3011, -157.84615)"
743,King Windward Nissan,45-568 Kamehameha Hwy,Kaneohe,96744,Oahu,Free,"EV charger is located in front of the dealership,  to the left.",7:00am-8:00pm,2,2,2,free,free,AeroVironment,Need to sign in on the sheet inside.,21.39918,-157.79937,"(21.39918, -157.79937)"
559,Walmart,75-1015 Henry Street,Kailua Kona,96740,Hawaii,Paid,The charging station is located at the first parking spot closest to the entrance.,24/7,1,1,2,Blink Plus: $1.00/hour.  Blink Basic: $1.50/hour.  Blink Guest: $2.00/hour,,Blink,,19.645467,-155.990287,"(19.645467, -155.990287)"
413,King Windward Nissan,45-568 Kamehameha Hwy,Kaneohe,96744,Oahu,Free,"EV charger is located in front of the dealership,  to the left.","7:00am-8:00pm, by reservation",1,1,3,Free,Free,AeroVironment,Need to sign in on the sheet inside.,21.399172,-157.799149,"(21.399172, -157.799149)"
283,Kauai Marriott Resort & Beach Club,3610 Rice Street,Lihue,96766,Kauai,Free,"Charging station is located on the Kalapaki Cir. side of the hotel, near the Ha'upu Tower, close to handicap stalls",24/7,1,2,2,Free,"Free parking during the day, Registered Guests have a $16-$19/night parking fee.",AeroVironment,Charger use restricted to hotel guests.  Vehicle must be registered at front desk and they will provide a key to activate the Charger.,21.961399,-159.349713,"(21.961399, -159.349713)"
579,Walmart,325 E Makaala St,Hilo,96720,Hawaii,Paid,"The charging station is located at the top of row 2, close to garden section.",24/7,1,1,2,Blink Plus: $1.00/hour.  Blink Basic: $1.50/hour.  Blink Guest: $2.00/hour,Free,Blink,,19.69997,-155.06196,"(19.69997, -155.06196)"
875,Westin Princeville Resort,3838 Wyllie Rd,Princeville,96722,Kauai,Paid,On the ground floor of the parking garage,24/7,1,4,2,Free for customers,,OpConnect,Free for customers,22.22286,-159.46861,"(22.22286, -159.46861)"
873,Lihue Airport,3901 Mokulele Loop,Lihue,96766,Kauai,Paid,Located in the main public parking lot,24/7,1,2,2,$7.00 flat fee 24 hour limit,,Greenlots,,21.97783,-159.34875,"(21.97783, -159.34875)"
327,Sheraton Maui,2605 Kaâ€™anapali Parkway,Lahaina,96761,Maui,Paid,The charging stations are located on 2nd floor of parking garage.,24/7,2,4,2,$2/hour or any fraction thereof,$1 for 3 hours with Validation from Restaurant if you spend $20 or more.  $30/Day for Registered Guests,OpConnect,"4 hour limit.  The OpConnect charging stations accept debit cards, credit cards, the Wright Express Fleet Fueling card, and the OpConnect card.",20.926822,-156.695125,"(20.926822, -156.695125)"
329,Wailea Beach Marriott,3700 Wailea Alanui,Wailea,96753,Maui,Free,"One charging station is in valet, one is in paid parking both on first floor adjacent to lobby.",24/7,2,2,2,Free,"$25 Self Park, $30 Valet, $30/Day Resort fee includes parking for Registered Guests",AeroVironment,Need FOB key to activate charging station in self-parking.,20.687945,-156.443305,"(20.687945, -156.443305)"
433,Ohana Waikiki Malia,2211 Kuhio Avenue,Honolulu,96815,Oahu,Free,"The charging stations are located on the 2nd level, at entrance",24/7,2,2,2,Free,"Guests $25.00 overnight, HI residents $10.00. 1hour free with validation from Ihop or Rivals bar with a purchase of $20.00 or more. 3$/half hour.",AeroVironment,See attendant for FOB key to activate charger.,21.280977,-157.828257,"(21.280977, -157.828257)"
323,Maui Memorial Medical Center,221 Mahalani Street,Wailuku,96793,Maui,Paid,The charging stations are located in the two designated EV parking spaces in the far left of the handicapped parking in the row in front of the ER entrance (facing west Maui mountains).,24/7,2,2,2,$15/session,Free,AeroVironment,Charging fee is a flat $15/session.  4 hour limit.,20.884847,-156.489451,"(20.884847, -156.489451)"
491,Chinatown Gateway Plaza Parking Structure,1031 Nuuanu Ave,Honolulu,96817,Oahu,Free,The entrance to the parking structure is located on Bethel Street.  Follow blue signs to Charger.,6:00am-12:00am,1,1,2,Free,Free for EV Drivers,ChargePoint,Activate with ChargePoint Network card or call the number listed on the front of the charging station for access.,21.310543,-157.862248,"(21.310543, -157.862248)"
657,Kona Nissan,76-6353 Kuakini Hwy,Kailua Kona,96740,Hawaii,Free,in parking lot,7am-6pm Sunday-Friday 9am-4pm Saturday,1,1,2,Free,,AeroVironment,"Nissan Leaf drivers only, Max 5 hours use",19.60924,-155.96445,"(19.60924, -155.96445)"
645,Foodland Kehalani,370 Kehalani Drive,Wailuku,96793,Maui,Paid,Charger is in the outside parking lot,24/7,1,2,2,$2/hour or any fraction thereof,,OpConnect,"4 hour limit.  The OpConnect charging station accept debit cards, credit cards, the Wright Express Fleet Fueling card, and the OpConnect card.  Parking fees may apply",20.87228,-156.50135,"(20.87228, -156.50135)"
605,"Alamo Enterprise Rent-a-Car, Nimitz",3055 N. Nimitz Hwy,Honolulu,96819,Oahu,Paid,Alamo Enterprise Rent-a-Car,24/7,3,6,2,$2/hour or any fraction thereof,,OpConnect,"Restricted to customers, when available.  Priority given to fleet vehicles.   The OpConnect charging stations accept debit cards, credit cards, the Wright Express Fleet Fueling card, and the OpConnect card.",21.33564,-157.90803,"(21.33564, -157.90803)"
601,Alamo/National Kahului Airport,905 E Mokuea Place,Kahului,96732,Maui,Paid,Alamo Rent A Car,24/7,2,4,2,$2/hour or any fraction thereof,,OpConnect,"Restricted to customers, when available.  Priority given to fleet vehicles.  The OpConnect charging stations accept debit cards, credit cards, the Wright Express Fleet Fueling card, and the OpConnect card.",20.89664,-156.44294,"(20.89664, -156.44294)"
281,Historic County Building,4396 Rice Street,Lihue,96766,Kauai,Paid,The charging stations.are located on the Eiwa Street side of the parking lot between the County Building and the Museum,Business Hours,2,2,2,Paid,Free for EV Drivers,AeroVironment,Charging fee is $2/hour.  4 hour limit.,21.97398,-159.36696,"(21.97398, -159.36696)"
723,Bishop Place,1132 Bishop Street,Honolulu,96814,Oahu,Paid,Bishop Place,24/7,1,1,2,$2-$4 an hr,,SemaConnect,EV charger operational even when parking garage is closed,21.31005,-157.86038,"(21.31005, -157.86038)"
649,Ala Moana Building,677 Ala Moana Boulevard,Honolulu,96813,Oahu,Paid,Located by the 3rd floor elevator,6am-6pm,2,2,2,Pay by credit card,yes,SemaConnect,,21.2974,-157.86209,"(21.2974, -157.86209)"
483,Fasi Civic Center Parking Structure,650 S. King Street,Honolulu,96813,Oahu,Free,Public parking entrance is on Alapai Street and S. Beretania Street. Follow blue signs to the charging station.,6:00am-12:00am,1,1,2,Free,Free for EV Drivers,ChargePoint,Activate with the ChargePoint Network card or call the number listed on the front of the charging station for access.,21.304104,-157.855049,"(21.304104, -157.855049)"
727,Costco Kona,73-5600 Maiau Street,Kailua Kona,96740,Hawaii,Paid,Costco Kona,24/7,1,1,2,$0.30/kWh,,SemaConnect,,19.68586,-156.01706,"(19.68586, -156.01706)"
661,Pacific Park Plaza,711 Kapiolani,Honolulu,96813,Oahu,Free,Parking Garage is on Curtis Street across from 711 Kapiolani (pacific park plaza). Charging Station is at the entrace of the garage on the right,Mon-Sat 6am-8pm Sun 6am-5pm,1,1,2,Free,$6 an hour,Eaton,Must be visiting a business in Pacific Park Plaza to use charging station,21.30141,-157.85559,"(21.30141, -157.85559)"
481,Whole Foods Kailua,629 Kailua Road,Kailua,96734,Oahu,Free,The charging stations are located in the first row of parking stalls close to entrance,7:00am-10:00pm,2,3,2,Free,Free,Volta,2 hour limit on EV charging.,21.39378,-157.74286,"(21.39378, -157.74286)"
465,University of Hawaii Lower Campus Parking Garage,2520 Dole Street,Honolulu,96822,Oahu,Paid,"The charging stations are located on the ground floor, Section F",5:00am-12:00am UH Permit Holders Access: 24/7,2,4,2,$2/hour or any fraction thereof,Free parking for EV Drivers,OpConnect,"The OpConnect charging stations accept debit cards, credit cards, the Wright Express Fleet Fueling card, and the OpConnect card.",21.29571,-157.81751,"(21.29571, -157.81751)"
369,Hawaii Convention Center,1801 Kalakaua Ave,Honolulu,96815,Oahu,Paid,"The charging station is located In parking structure, Aisle B next to pedestrian walkway",Varies by event.,1,1,2,$2.00/hour,$10,Volta,Charging fee is $2/hour.,21.289814,-157.83592,"(21.289814, -157.83592)"
671,Target- Honolulu,4380 Lawehana St,Honolulu,96818,Oahu,Free,Middle row of parking lot - ground floor near entrance,M-Sat 8am-12am Sun 8am-11pm,1,2,2,Free for 3 hours,Free,ChargePoint,3 hours charging max. Will need to download Chargepoint app or have membership card to activate charge,21.35583,-157.92927,"(21.35583, -157.92927)"
381,Hokua Condominium,1288 Ala Moana Blvd,Honolulu,96814,Oahu,Paid,The charging station is located on ground level of parking garage near loading dock,6:00am-2:00am,3,6,2,$2/hour or any fraction thereof,,OpConnect,"The OpConnect charging stations accept debit cards, credit cards, the Wright Express Fleet Fueling card, and the OpConnect card.",21.292395,-157.849957,"(21.292395, -157.849957)"
487,Neal Blaisdell Center Parking Structure,777 Ward Avenue,Honolulu,96814,Oahu,Free,Enter S. King Street/Victoria street.  Follow blue signs to Charger.,6:00am-12:00am,1,1,2,Free,Free for EV Drivers,ChargePoint,Activate charger with ChargePoint Network card or call the number listed on the front of the charger for access.,21.299434,-157.850378,"(21.299434, -157.850378)"
737,Home Depot- Hilo,380 Makaala St,Hilo,96720,Hawaii,Paid,Hilo,24/7,1,2,2,24/7,,ChargePoint,Charge Point Membership Card Required,19.69832,-155.05909,"(19.69832, -155.05909)"
637,Windward Mall,46-056 Kamehameha Hwy,Kaneohe,96744,Oahu,Paid,Ground level of double decker parking lot. first floor stall outside of theater exit,24/7,2,2,2,59Â¢/kWh,N/A,Blink,"Members: Tap your Blink InCard on the charger and follow the instructions on the screen. Non-Members: Purchase a single use Blink Guest code at https://blinkcode.com/mobile-web/payment with your mobile phone, tablet or computer.",21.42054,-157.80586,"(21.42054, -157.80586)"
453,The Pan Am Building,1600 Kapiolani Boulevard,Honolulu,96814,Oahu,Free,"The charging station is located on the 2nd floor, up the ramp take 2 left turns","Mon-Fri 6:00am-10:00pm, Sat 7:00am-5:00pm, Sun closed",1,1,2,"1st 2 hours free, $5 every additional hour",parking fees may apply,SemaConnect,"First 2 hours of charging are free, $5 every additional hour.  Use your smart phone to charge by credit card at the Charger, instructions on the screen.  Call 1-800 number to sign up for a card.",21.292087,-157.83915,"(21.292087, -157.83915)"
319,Maui Beach Hotel,170 Kaahumanu Avenue,Kahului,96732,Maui,Free,Ask Front Desk at Check In,24/7,1,1,1,Free,Free,Bring your own cordset/Level 1 Charger,Restricted to Hotel Guests.,20.890185,-156.471059,"(20.890185, -156.471059)"
721,City Financial Tower,"201 Merchant Street, Suite 2220",Honolulu,96813,Oahu,Paid,City Financial Tower,not specified,4,4,2,$0.00-$3.00/Hr,,SemaConnect,,21.30719,-157.86142,"(21.30719, -157.86142)"
633,Whaler's Village,2435 Kaanapali Pkwy,Lahaina,96761,Maui,Free,Two stations located on the ground level of the main parking structure.  There is one station on either side of the pedestrian walkway leading into Whaler's Village.,8am-10pm,2,2,2,free. 2 hours maximum,,Volta,Please sign in with parking attendant at the front gate once you occupy stall.  They will be strict on the allowed charging time per vehicle.  There is no network membership needed to charge.,20.92083,-156.6942,"(20.92083, -156.6942)"
679,Castle Medical Center,640 Ulukahiki St,Kailua,96734,Oahu,Free,Chargers are located in the front by the bus stop.,24/7,2,2,2,Free,,Eaton,,21.38108,-157.75765,"(21.38108, -157.75765)"
373,Hawaii State Capitol,415 South Beretania St.,Honolulu,96813,Oahu,Paid,"The charging station is located in basement parking garage, The entrance is off of Punchbowl st.","4:00am. to 6:30pm Mon-Fri, 6:00am to 2:00pm Saturdays",1,1,2,Paid,Public fee $1.00/hour within a 2-hour maximum,Volta,Charging fee is $2.00/hour.  4 hour limit.,21.307757,-157.857302,"(21.307757, -157.857302)"
585,Home Depot,380 Makaala St,Hilo,96720,Hawaii,Free,"The charging stations is located near the main entrance, close to the lumber area.",24/7,1,2,2,Free,Free,Schneider Electric,,19.69832,-155.05909,"(19.69832, -155.05909)"
463,University of Hawaii Faculty Housing,3029 Lowrey Avenue,Honolulu,96822,Oahu,Paid,The charging station is in the parking lot.,24/7,1,2,2,$2/hour or any fraction thereof,,OpConnect,"The OpConnect charging stations accept debit cards, credit cards, the Wright Express Fleet Fueling card, and the OpConnect card.",21.308162,-157.806897,"(21.308162, -157.806897)"
697,University of Hawaii Lower Campus Parking Garage,2520 Dole Street,Honolulu,96822,Oahu,Paid,Ground floor- Section F,5am-12am,2,4,1,$2/hr or any fraction thereof,,OpConnect,"The OpConnect charging stations accept debit cards, credit cards, the Wright Express Fleet Fueling card, and the OpConnect card.",21.29571,-157.81751,"(21.29571, -157.81751)"
611,Maile Sky Court,2058 Kuhio Ave,Honolulu,96815,Oahu,Paid,The charging station is located in the parking garage (4th floor),Business Hours,1,2,2,"$18/day, $2/hour or any fraction thereof",,OpConnect,"The OpConnect charging stations accept debit cards, credit cards, the Wright Express Fleet Fueling card, and the OpConnect card.",21.28396,-157.83093,"(21.28396, -157.83093)"
603,Alamo/National - Kaanapali,30 C Halawai Drive,Lahaina,96761,Maui,Paid,Alamo/National Rent A Car,24/7,1,2,2,$2/hour or any fraction thereof,,OpConnect,"Restricted to customers, when available.  Priority given to fleet vehicles.  The OpConnect charging stations accept debit cards, credit cards, the Wright Express Fleet Fueling card, and the OpConnect card.",20.94181,-156.689,"(20.94181, -156.689)"
725,Costco Maui,540 Haleakala Hwy,Kahului,96732,Maui,Paid,Costco Maui,not specified,1,1,2,$0.30/kWh,,SemaConnect,,20.88714,-156.45077,"(20.88714, -156.45077)"
399,Kaiser Permanente Moanalua Medical Center,3288 Moanalua Road,Honolulu,96819,Oahu,Free,The charging station is located on the 2nd floor.,Mon-Fri 8:30am-5:00pm,1,1,2,Free,1st 3 hours free.  $1 every hour thereafter.,Volta,,21.363393,-157.899511,"(21.363393, -157.899511)"
349,Central Pacific Plaza,220 S. King St,Honolulu,96813,Oahu,Paid,The chargers are located on 2nd Floor of parking garage,"Mon-Fri 7:00am-7:00pm, Sat 7:00am-3:00pm, Sun closed",2,4,2,$2/hour or any fraction thereof,,OpConnect,"The OpConnect charging stations accept debit cards, credit cards, the Wright Express Fleet Fueling card, and the OpConnect card.  Parking fees may apply.",21.307812,-157.860548,"(21.307812, -157.860548)"
365,Ewa Town Center,91-1401 Ft Weaver Rd,Honolulu,96706,Oahu,Paid,The charging station is located next to Blockbusters and Starbucks building facing Fort Weaver Rd,7:00am-9:00pm,1,2,2,$2/hour or any fraction thereof,Free,OpConnect,"The OpConnect charging stations accept debit cards, credit cards, the Wright Express Fleet Fueling card, and the OpConnect card.  Parking fees may apply.",21.333873,-158.024426,"(21.333873, -158.024426)"
435,Ohana Waikiki West,2330 Kuhio Avenue,Honolulu,96815,Oahu,Free,"The charging stations are located at self parking, lobby level",24/7,2,2,2,Free,Guests $25.00 overnight . HI residents $10.00 over night. $3.00/half hour,AeroVironment,Need attendant to activate Charger.,21.278943,-157.825025,"(21.278943, -157.825025)"
401,Kaiser Permanente Waipio,94-1480 Moaniani St.,Waipahu,96797,Oahu,Free,Enter the parking lot and continue towards the Ewa side of the main building. One pedestal charging station is next to the handicap stalls on the building side.,24/7,1,1,2,Free,Free for Employees and Patients,Volta,,21.425784,-157.997143,"(21.425784, -157.997143)"
685,Maui Brewing Company,605 Lipoa Parkway,Kihei,96753,Maui,Paid,Charging station in located in stalls marked for EVs,11am-10:30pm,4,4,2,"1st 2 hours $1/hr, then $5/hr",,SemaConnect,Pay with Plugshare App,20.74952,-156.43735,"(20.74952, -156.43735)"
309,Jim Falk  Motors of Maui,260 Hana Hwy,Kahului,96732,Maui,Free,Charging Station is in the front of the lot.,7:30am-8:00pm,3,3,2,Free,Free,AeroVironment,Restricted to Customers only.,20.888418,-156.458423,"(20.888418, -156.458423)"
497,Hilton Waikiki Beach,2500 Kuhio Ave,Honolulu,96815,Oahu,Free,The charging stations.are located in the valet,24/7,2,2,2,Free,"$25.00 valet services, $15.00 for functions, $3.00 with validation",AeroVironment,,21.275246,-157.821863,"(21.275246, -157.821863)"
475,Waikiki Sand Villa,2375 Ala Wai Blvd,Honolulu,96815,Oahu,Free,The charging station is located in valet,24/7,1,1,2,Free to Hotel Guests - Non Guests/Bar Patrons $10.00 per session,$20.94 Overnight. $10.00/half hour. Validations offered from facilities within hotel,Schneider Electric,Free charging for hotel guests - Non-guests/bar patrons charge fee is a flat $10/session.,21.278842,-157.823158,"(21.278842, -157.823158)"
647,Kings Shops,69-250 Waikoloa Beach Dr,Waikoloa,96738,Hawaii,Paid,Next to Big Island Motorcycle,24/7,1,2,2,Pay by credit card,-,OpConnect,,19.91642,-155.8822,"(19.91642, -155.8822)"
693,Maui Marketplace,270 Dairy Road,Kahului,96732,Maui,Paid,In front of Starbucks and Jamba Juice with stalls facing Dairy Road and Down to Earth across road.,24 Hours,2,2,2,$0.42/kWh,Free,SemaConnect,Requires SemaConnect RFID Card to activate device.  $20 to setup account with $20 in usage credit applied to account.,20.88157,-156.45471,"(20.88157, -156.45471)"
467,USA Hawaii Federal Credit Union,1226 College Walk,Honolulu,96817,Oahu,Paid,The charging stations are located to the left after entering parking garage,"Mon-Fri 7:00am-7:00pm, Sat 7:00am-2:30pm",2,4,2,$2/hour or any fraction thereof,,OpConnect,"The OpConnect charging stations accept debit cards, credit cards, the Wright Express Fleet Fueling card, and the OpConnect card.",21.315543,-157.862141,"(21.315543, -157.862141)"
599,Ward Warehouse,1050 Ala Moana Boulevard,Honolulu,96814,Oahu,Free,The charging station is located in front of Executive Chef.  Front row stall as you enter center parking.,N/A,1,1,2,Free,,Volta,,21.29496,-157.85704,"(21.29496, -157.85704)"
703,Grand Hyatt Kauai,1571 Poipu Rd.,Koloa,96756,Kauai,Free,The charging stations.are located in the corner of the guest parking closest to the hotel.,24/7,1,1,2,Free,,AeroVironment,Ask valet to activate. AeroVironment: (888) 833-2148,21.87553,-159.43973,"(21.87553, -159.43973)"
587,Wilcox Memorial Hospital,3420 Kuhio Hwy,Lihue,96766,Kauai,Free,One charging station is next to hospital and a second charging station is next to clinic,8am-8pm,2,4,2,Free,Free,Pep Stations,,21.98578,-159.36268,"(21.98578, -159.36268)"
651,Honolulu Club Building,932 Ward,Honolulu,96814,Oahu,Paid,Basement by the elevator,24/7,1,1,2,"$2 per hour for first 2 hours, $4 hour each additional hour",,SemaConnect,Need to contact SemaConnect to initiate charge session. Details are on charging station.,21.30176,-157.8509,"(21.30176, -157.8509)"
443,Pearlridge Shopping Center (uptown),1005 Moanalua Road,Aiea,96701,Oahu,Free,"1 Volta charging station is located next to the main uptown entrance, fronting Taco Bell. Look for the Revolusun sign.","Mon-Sat 10:00am-9:00pm, Sun 10:00am-6:00pm",1,1,2,Free,Free for customers,Volta,,21.38593,-157.94132,"(21.38593, -157.94132)"
735,Target- Kailua,345 Hahani St,Kailua,96734,Oahu,Paid,Target,24/7,2,2,2,"first two hours free, $2 after",,ChargePoint,requires charge point card,21.39055,-157.7397,"(21.39055, -157.7397)"
669,Pacific Guardian Center,737 Bishop Street,Honolulu,96813,Oahu,Free,charger located on the 2nd floor by the entrance,7:30-5pm m-f,1,1,2,2 hours free,,GE WattStation,"2 hours charging only. EV drivers wishing to use charger, must sign in at parking office located on the 2nd floor.",21.30733,-157.86292,"(21.30733, -157.86292)"
625,Ross,711 Keeaumoku,Honolulu,96814,Oahu,Free,"The charging station is located on the bottom floor of the parking garage, Turn left upon entering.",24/7,1,1,2,Free,,AeroVironment,,21.29495,-157.84113,"(21.29495, -157.84113)"
673,Target-Kapolei,4450 Kapolei Pkwy Ste 100,Kapolei,96707,Oahu,Free,Charger located in front of exit doors,6am-11pm,1,2,2,Free for 2 hours,,ChargePoint,Need to download ChargePoint App or have Membership card to activate charge session,21.33165,-158.0921,"(21.33165, -158.0921)"
653,Bishop Square,1003 Bishop Street,Honolulu,96813,Oahu,Paid,10th floor,24/7,2,2,2,"$2 per hour for first 2 hours, $4 hour each additional hour",,SemaConnect,Contact SemaConnect to initiate charge. Contact details located on charger,21.30905,-157.86036,"(21.30905, -157.86036)"
819,Green Energy Outlet,724 Ilaniwai,Honolulu,96813,Oahu,Paid,Green spot for EV Charging in front of lot. Other Chargers available in garage.,24,1,1,1,$4 per session plus $2 per 30 minutes.,,ChargePoint,,21.29974,-157.85703,"(21.29974, -157.85703)"
821,Green Energy Outlet,724 Ilaniwai,Honolulu,96813,Oahu,Paid,Green spot for EV Charging in front of lot. Other Chargers available in garage.,24,1,1,2,$4 per session plus $2 per 30 minutes.,,ChargePoint,,21.29974,-157.85703,"(21.29974, -157.85703)"
417,Longs Drugs,609 Kailua Road,Kailua,96734,Oahu,Free,located at the parking stall in front of entrance,8:00am-9:00pm,1,1,2,Free for up to 2 hours,Free,Volta,2 hour limit on charging,21.39363,-157.74216,"(21.39363, -157.74216)"
729,HPU - Hawaii Loa Campus,45-045 Kamehameha Hwy,Kaneohe,96744,Oahu,Paid,Charging stations are located up the hill from the main security gate. They are mounted on the wall of the Academic Center Chiller Plant. Mahalo!,24/7,2,2,2,$0.50/Hr $0.30/kWh The parking is $.50 per hour and the energy fee is $.30 per KWH 24/7.,,SemaConnect,,21.37907,-157.78168,"(21.37907, -157.78168)"
315,Marriott Maui Ocean Club,100 Nohea Kai Drive,Lahaina,96761,Maui,Free,The charging station is located in the Valet station,24/7,1,1,2,Free,"$14/Day for Self-Park, $16/Day Valet",ChargePoint,,20.915844,-156.695292,"(20.915844, -156.695292)"
741,Kapolei Commons,4470 Kapolei Parkway,Kapolei,96707,Oahu,Paid,Located next to Ruby Tuesday near Kapolei Parkway,24/7,1,1,3,"typically &6.50/session, based upon time-of-use or OpConnect network",,Greenlots,CHAdeMO fast charging,21.329,-158.0916,"(21.329, -158.0916)"
701,New City Nissan,2295 North King Street,Honolulu,96819,Oahu,Free,In front of building,6:30am-8:00pm,2,2,2,Free for all Nissan Leafs,,AeroVironment,Restricted to Leafs only.,21.3353,-157.8822,"(21.3353, -157.8822)"
573,Waianae Mall Shopping Center,86-120 Farrington Hwy,Waianae,96792,Oahu,Free,The charging stations are located next to each other in front of the 24 hour landraumat,24/7,2,2,2,Free,Parking fees may apply,AeroVironment,Contact security to activate the charging station.,21.43712,-158.18568,"(21.43712, -158.18568)"
731,Costco Kauai,4300 Nuhou St,Lihue,96766,Kauai,Paid,Costco,24/7,1,1,2,$0.30/kWh,,SemaConnect,,21.96704,-159.37954,"(21.96704, -159.37954)"
419,Markâ€™s Garage,1159 Nuuanu Ave,Honolulu,96813,Oahu,Paid,The charging station is located on the 3rd floor of parking garage,"Mon 5:45am-10:00pm, Tue 10:45am-12:00am, Wed-Fri 5:45am-2:00am, Sat 7:00am-2:00am",1,2,2,$2/hour or any fraction thereof,$10.00 Flat rate,OpConnect,"The OpConnect charging stations accept debit cards, credit cards, the Wright Express Fleet Fueling card, and the OpConnect card.",21.3114,-157.86103,"(21.3114, -157.86103)"
607,Times Supermarket - Liliha Branch,1425 Liliha St,Honolulu,96817,Oahu,Free,The charging stations are located in the main parking lot- first two stalls on right hand of supermarket,7am-10pm,2,2,2,Free,Free,Leviton,Restricted to shoppers and diners. 2 hour limit during shopping hours.,21.31977,-157.86124,"(21.31977, -157.86124)"
887,Target -Salt Lake,4380 Lawehana St,Honolulu,96819,Oahu,Paid,"Parking Garage, lower level, ewa side of handicap parking. First two hour free",24/7,2,2,2,Free first 2hrs,n/a,ChargePoint,"First two hour free, ChargePoint card required.",21.35483,-157.92881,"(21.35483, -157.92881)"
889,KaMakana Ali'i- The Center for West Oahu,91-5431 Kapolei Parkway,Kapolei,96707,Oahu,Free,There are 5 stations in total on this site. All stations are 100% free to use.  2 Volta Stations- at the entrance to the food court. Main entrance in front row parking stalls 2 Volta Stations- on the backside of the center near Macy's. 1 pedestal charger at the main food court entrance,10am-9pm,5,5,2,free,free,Volta,,21.33631,-158.05205,"(21.33631, -158.05205)"
663,Pali Momi Medical Center - Hawaii Pacific Health,98-1079 Moanalua Rd,Aiea,96701,Oahu,Paid,Charging stations located P1 level visitor parking,24/7,2,2,2,Paid,Paid,ChargePoint,,21.38328,-157.9386,"(21.38328, -157.9386)"
869,International Market Place,2345 Kuhio Ave,Honolulu,96815,Oahu,Paid,.,24/7,2,8,2,Paid,Paid,ChargePoint,,21.27829,-157.82549,"(21.27829, -157.82549)"
655,Hawaii Kai Towne Center,333 Keahole St,Honolulu,96825,Oahu,Paid,in front of  Yogurt Land and near Fantastic Sams,24/7,1,1,2,$0.79/kWh (subject to change),Free,Blink,2 empty spaces but only 1 charger,21.28302,-157.71103,"(21.28302, -157.71103)"
773,Ala Moana Center,1450 Ala Moana Blvd,Honolulu,96814,Oahu,Free,on street level near taxi parking area and food court.,24,1,2,2,Free,Free,Volta,,21.29046,-157.84373,"(21.29046, -157.84373)"
307,Hyatt Regency Maui,200 Nohea Kai Drive,Lahaina,96761,Maui,Paid,"In the Lahaina parking area, take a left turn towards back area, EV station will be directly on your right",24/7,1,2,2,Paid,"Free for Restaurant Guests with validation.  $14/Day for Self-Parking, $5/Valet",ChargePoint,$3.50/hour. 4 hour limit.  Pay with Credit Card at charging station.,20.91267,-156.692201,"(20.91267, -156.692201)"
353,DFS Waikiki Galleria,330 Royal  Hawaiian Avenue,Honolulu,96815,Oahu,Free,The charging stations are located at Level 5B,9:00am-11:00pm,3,3,2,Free,Paid,AeroVironment,,21.280353,-157.828807,"(21.280353, -157.828807)"
665,Safeway-Wailuku,58 Maui Lani Parkway #5000,Wailuku,96793,Maui,Free,in front of safeway,24/7,6,6,2,Free,Free,GE WattStation,,20.88254,-156.49193,"(20.88254, -156.49193)"
259,Hapuna Beach Prince Hotel,62-100 Kaunaoa Dr.,Kohala Coast,96743,Hawaii,Paid,The charging stations.are located in the valet,24/7,2,4,2,$2/hour or any fraction thereof,"Free Validated parking, $15/Day Self Park overnight, $20/Day Valet overnight.",OpConnect,"Drivers required to get a key card from the Hotel's front desk to operate charging station. Drivers can pull up by vallet, to get a key card from front desk, through parking gate to the charging station. Station avaiable for hotel patrons.",19.994437,-155.824429,"(19.994437, -155.824429)"
581,Kapiolani Medical Center,1319 Punahou Street,Honolulu,96826,Oahu,Paid,the charging stations are located on the 2nd floor and 8th floor.  Stalls are marked.,24/7,4,8,2,$2/hour,Parking fees may apply,"ChargePoint, Pep Stations",,21.29992,-157.83453,"(21.29992, -157.83453)"
371,Prince Waikiki Hotel (Hawaii Prince Hotel Waikiki),100 Holomoana St.,Honolulu,96815,Oahu,Paid,on level E of the parking garage,24/7,2,4,2,$2.30/ hour,$2.50/ Â½ hour; restaurant patron $6 limit up to 6 hours; banquet patron $11.00 up to 12 hours,OpConnect,"The OpConnect charging stations accept debit cards, credit cards, the Wright Express Fleet Fueling card, and the OpConnect card.",21.286515,-157.840211,"(21.286515, -157.840211)"
667,Straub Clinic & Hospital - Hawaii Pacific Health,888 S King St,Honolulu,96813,Oahu,Paid,2nd floor parking garage- first 2 stalls on the right when you turn on to the same level as the handicap stalls,24/7,2,2,2,$2 an hr,,ChargePoint,,21.30258,-157.85054,"(21.30258, -157.85054)"
895,Kaiser Permanente Kona Medical Office,74-517 Honokohau St,Kailua Kona,96740,Hawaii,Paid,Kaiser Permanente Kona Medical Office,8:00am-05:00pm,3,6,2,starting from $2.75 for first couple of hours and then decreases,Free,SemaConnect,,19.67427,-156.01439,"(19.67427, -156.01439)"
897,Kahala Resort,5000 Kahala Ave,Honolulu,96816,Oahu,Paid,down the stairs from self-parking zone,24/7,1,2,2,Paid,Paid,SemaConnect,Free Parking with Validation.,21.27185,-157.77365,"(21.27185, -157.77365)"
269,Kona Commons Shopping Center,74-5450 Makala Blvd,Kailua-Kona,96740,Hawaii,Paid,On side of Sports Authority,8:00am-10:00pm,2,4,2,$2/hour or any fraction thereof,Free,OpConnect,"2 Ports Currently not on service; The OpConnect charging stations accept debit cards, credit cards, the Wright Express Fleet Fueling card, and the OpConnect card.  Parking fees may apply.",19.6494936,-156.0049149,"(19.6494936, -156.0049149)"
275,Kona International Airport,Keahole International Airport,Kailua-Kona,96740,Hawaii,Paid,On the first floor of garage across from the entrance gate.,5:30am-11:30pm,1,2,2,$2/hour or any fraction thereof,"24 hours $10.  16-30 minutes is $1, 31 minutes- 60 minutes $2, 61 minutes-2 hours $5, 2 hours-3 hours $8.",OpConnect,"Restricted to customers, when available.  Priority given to fleet vehicles.  The OpConnect charging stations accept debit cards, credit cards, the Wright Express Fleet Fueling card, and the OpConnect card.  Parking fees may apply.",19.7367705,-156.0397822,"(19.7367705, -156.0397822)"
891,Haiku Community Center,Hana Highway at Pilialoha St,Haiku,96708,Maui,Paid,by the recycling center,24/7,1,1,2,Fees vary depending on the type of membership,Free,Hitachi,"To use this charger, drivers need to be a member of  EVOhana. Visit http://evohana.com  or email info@jumpsmartmaui.com or call 808-270-6802",20.9299,-156.32005,"(20.9299, -156.32005)"
357,Embassy Suites Waikiki,201 Beach Walk Street,Honolulu,96815,Oahu,Free,The charging stations are located in the valet on Lewers Street,24/7,2,2,2,Free,"$6.00/4 hours with restaurant validation, $3.00/half hour thereafter.  $30/day for overnight guests (in/out parking).",AeroVironment,,21.279117,-157.8317518,"(21.279117, -157.8317518)"
901,801 Dillingham Building,801 Dillingham Blvd,Honolulu,96817,Oahu,Paid,"Across the parking lot of Costco, in front of Max's of Manila",24/7,1,2,3,"Mid day (9am-5pm) = $0.49/kWh, On-Peak (5pm-10pm) = $0.57/kWh, Off-Peak (10pm-9am) = $0.54/kWh",Free,OpConnect,"CHAdeMO, SAE - CCS; Major Credit Cards or OpConnect Network",21.3179332,-157.8694431,"(21.3179332, -157.8694431)"
791,"Costco Wholesale, Waipahu",94-1231 Ka Uka Blvd,Waipahu,96797,Oahu,Free,Map marker location is precise,10:00 AM - 8:30 PM,1,2,2,Free,Free,SemaConnect,,21.42645,-158.00009,"(21.42645, -158.00009)"
787,Lahaina Aquatic Center,245 Shaw Street,Lahaina,96761,Maui,,Across from Lahaina Recreation,8:00AM - 8:00PM,1,1,2,Fees vary depending on the type of membership,Free,AeroVironment,"To use this charger, drivers need to be a member of  EVOhana. Visit http://evohana.com  or email info@jumpsmartmaui.com or call 808-270-6802",20.86956,-156.67145,"(20.86956, -156.67145)"
267,Hilton Waikaloa,69-425 Waikoloa Beach Dr.,Waikoloa,96738,Hawaii,Paid,The charging stations.are located in the valet,24/7,2,2,2,$2/hour or any fraction thereof,"$15/Day Self Park, $20/Day Valet",Tesla,"The OpConnect charging stations accept debit cards, credit cards, the Wright Express Fleet Fueling card, and the OpConnect card.  Parking fees may apply.",19.925895,-155.8837629,"(19.925895, -155.8837629)"
899,"Maui County Building, Wailuku",200 South High Street,Wailuku,96793,Maui,Paid,"The chargers are located directly in front of County Building, outdoor lot. The space is painted green and there is a sign",24/7,1,2,3,Fees vary depending on the type of membership,Free,Hitachi,"To use this charger, drivers need to be a member of  EVOhana. Visit http://evohana.com  or email info@jumpsmartmaui.com or call 808-270-6802",20.88532,-156.504045,"(20.88532, -156.504045)"
825,Kaimuki Plaza,3465 Waialae Avenue,Honolulu,96816,Oahu,Free,Parking Lot,24,1,2,2,Free,"$2/h up until 2 hours, $4/h after 2 hours",SemaConnect,CASH payment only for parking,21.28377,-157.80162,"(21.28377, -157.80162)"
457,TOPA Financial Center,700 Bishop St.,Honolulu,96813,Oahu,Paid,The charging stations are lcoated on parking garage basement level,5:00am-8:00pm,3,6,2,$2/hour or any fraction thereof,"$3.25/half hour, Some offices offer validations",OpConnect,"The OpConnect charging stations accept debit cards, credit cards, the Wright Express Fleet Fueling card, and the OpConnect card.  Parking fees may apply.",21.3077669,-157.86351,"(21.3077669, -157.86351)"
781,Hawaii Electric Light Hilo Office,1200 Kilauea Ave,Hilo,96720,Hawaii,Paid,Turn left after entering parking lot,24/7,1,1,3,"Mid day (9am-5pm) = $0.51/kWh, On-Peak (5pm-10pm) = $0.63/kWh, Off-Peak (10pm-9am) = $0.61/kWh",,Greenlots,Payment option: Major Credit Cards or Greenlots Network,19.71101,-155.07706,"(19.71101, -155.07706)"
375,Hilton Hawaiian Village,2003 Kalia Rd.,Honolulu,96814,Oahu,Paid,The charging stations.are located on the 2nd floor of the parking garage across from Kalia Tower,24/7,2,4,2,$2/hour or any fraction thereof,,OpConnect,"The OpConnect charging stations accept debit cards, credit cards, the Wright Express Fleet Fueling card, and the OpConnect card.",21.2836659,-157.8377792,"(21.2836659, -157.8377792)"
597,Ward Center - OUT OF SERVICE,1200 Ala Moana Blvd,Honolulu,96814,Oahu,Free,"The charging station is located between Kua'aina and Bed, Bath and Bed Bath and Beyond on the first floor across from the valet stand.",24/7,1,1,2,Free,,Volta,,21.29272,-157.85245,"(21.29272, -157.85245)"
407,Kapolei Judiciary State Ownership,4675 Kapolei Pkwy,Kapolei,96707,Oahu,Paid,Enter the parking lot and continue to the rear entrance of the building. Two charging stations are located next to the loading docks.,7:00am-5:00pm,2,2,2,"$2.00/hour, up to 4 hours",Free for EV drivers,Volta,Charging fee is $2/hour.  4 hour limit.,21.3277116,-158.0859761,"(21.3277116, -158.0859761)"
623,Ka`anapali Beach Hotel,2525 Kaanapali Pkwy,Lahaina,96761,Maui,Paid,The chargers are located on the right hand side of the entrance to the hotel.  It is visible from the street.,24/7,1,4,3,Fees vary depending on the type of membership,Free,Hitachi,"To use this charger, drivers need to be a member of  EVOhana. Visit http://evohana.com  or email info@jumpsmartmaui.com or call 808-270-6802",20.92415,-156.69405,"(20.92415, -156.69405)"
687,Maui Electric Company Ltd.,210 W Kamehameha Avenue,Kahului,96733,Maui,Paid,"In front of Maui Electric, Kahului Office",24/7,1,1,3,"Mid day (9am-5pm) = $0.49/kWh, On-Peak (5pm-10pm) = $0.62/kWh, Off-Peak (10pm-9am) = $0.60/kWh",,ABB,Major Credit Cards or Greenlots Network,20.88463,-156.47213,"(20.88463, -156.47213)"
345,Best Western Plaza Hotel,3253 N. Nimitz Highway,Honolulu,96819,Oahu,Free,The charging stations are located in self-parking next to security as soon as you enter,24/7,2,2,2,Free,"$25/day for registered guests, $12/day for registered guests that are HI residents.  Free parking for the visitors of registered guests.",AeroVironment,Restricted to registered guests and their visitors.  Retrieve a FOB key from the front desk to activate charging station.,21.3364879,-157.9131399,"(21.3364879, -157.9131399)"
449,Sheraton Waikiki,2255 Kalakaua Ave,Honolulu,96815,Oahu,Paid,The charging stations are located on the 3rd floor parking garage.,24/7,3,6,2,$2/hour or any fraction thereof,,OpConnect,"4 hour limit on charging.  The OpConnect charging stations accept debit cards, credit cards, the Wright Express Fleet Fueling card, and the OpConnect card.",21.2780995,-157.8298294,"(21.2780995, -157.8298294)"
783,Hawaii Electric Light Kona Office,74-5519 Kaiwi Street,Kailua Kona,96740,Hawaii,Paid,Turn left after entering gate,24/7,1,1,3,"Mid day (9am-5pm) = $0.51/kWh, On-Peak (5pm-10pm) = $0.63/kWh, Off-Peak (10pm-9am) = $0.61/kWh",,Greenlots,Major Credit Cards or Greenlots Network,19.64528,-156.00005,"(19.64528, -156.00005)"
905,Campbell Square,"1001 Kamokila Blvd, Kapolei Building",Kapolei,96707,Oahu,Paid,P1 across from elevators,Always open,2,2,2,$2.50 first hour then $5.00 afterwards,None,ChargePoint,,21.33466,-158.08053,"(21.33466, -158.08053)"
485,Honolulu Zoo Parking Lot (Currently DOWN),151 Kapahulu Avenue,Honolulu,96815,Oahu,Free,Entrance to parking lot is on Kapahulu.  Follow blue signs to Charger.,6:00am-12:00am,1,1,2,Free,Free for EV Drivers,ChargePoint,Activate Charger with ChargePoint Network card or call the number listed on the front of the Charger for access.,21.2716382,-157.8213834,"(21.2716382, -157.8213834)"
313,Kihei Town Center,1881 S Kihei Rd,Kihei,96753,Maui,Paid,"The charging station is located In front of â€œHappy Nailsâ€ between Sansei and Cuatro Restaurants, near Police Station & Rainbow Attic at 24/7 Kihei Foodland",24/7,1,2,2,$2/hour or any fraction thereof,Free,OpConnect,"The OpConnect charging stations accept debit cards, credit cards, the Wright Express Fleet Fueling card, and the OpConnect card.",20.7322086,-156.4524619,"(20.7322086, -156.4524619)"
427,Enterprise Nimitz Center,1130 North Nimitz Hwy,Honolulu,96817,Oahu,Paid,The chargers are located at Enterprise Rent-a-Car parking in rear of garage,8:00am-9:00pm,2,2,2,$2/hour or any fraction thereof,First 2-hours free for customers,OpConnect,Restricted to Enterprise Fleet EVs only. 4 hour limit.,21.3188507,-157.8745459,"(21.3188507, -157.8745459)"
903,Leilehua (State Property),1515 California Avenue,Wahiawa,96786,Oahu,Free,"Front parking lot, center row",N/A,1,1,2,Free,Free,Manufacturer/Network Unknown,None,21.50046,-158.01213,"(21.50046, -158.01213)"
395,Kaimuki Shopping Center,3221 Waialae Ave,Honolulu,96816,Oahu,Free,The charging station is in the parking lot.,24/7,1,2,2,Free,Free for customers,ChargePoint,,21.2866121,-157.8077935,"(21.2866121, -157.8077935)"
325,Ritz Carlton Kapaalua(Currently Not on Service),1 Ritz-Carlton Drive,Kapalua,96761,Maui,Free,"Outdoor parking lot close to emplloyee entrance.  EV station labeled, where buses and large vehicles park",24/7,2,2,2,"Free until further notice,  fee amount TBD","Free for Day Guests.  $10/Night Self-Park, $18/Night Valet for Registered Guests",Pep Stations,,20.9998264,-156.6551531,"(20.9998264, -156.6551531)"
543,Waikoloa Marriott,69-275 Waikoloa Beach Drive,Waikoloa,96738,Hawaii,Free,"The charging stations are located in the parking lot on the east side of the tennis courts.  Drive to the end of the lot (it's a one way road) and make a U-turn, and the chargers are in a small parking lot on the right.",24/7,2,2,2,Free,Free for guests,AeroVironment,Restricted to registered Guests. EV drivers need to retrieve FOB key from Security at the bell desk.,19.9165819,-155.884771,"(19.9165819, -155.884771)"
639,Sheraton Princess Kaiulani,120 Kaiulani Avenue,HONOLULU,96815,Oahu,Paid,United States,24/7,1,2,2,$2.20/hour or any fraction thereof,,OpConnect,"4 hour limit.  The OpConnect charging station accept debit cards, credit cards, the Wright Express Fleet Fueling card, and the OpConnect card.  Parking fees may apply",21.2776587116,-157.8255906701,"(21.2776587116, -157.8255906701)"
771,Ala Moana Center,1450 Ala Moana Blvd,Honolulu,96814,Oahu,Free,in front of Genki Sushi. Take the Keeaumoku entrance up the ramp and turn right. Charging stations will be on the right.,"Mall hours, 9:30am-9:30pm",2,4,2,Free,Free,Volta,,21.29046,-157.84373,"(21.29046, -157.84373)"
359,Enterprise Rent A Car Honolulu Airport,3255 Aolele St,Honolulu,96818,Oahu,Paid,The charging station is on the side of the building next to the pillars.,6:00am-10:30pm,2,4,2,$2/hour or any fraction thereof,Free,OpConnect,"Restricted to customers, when available.  Priority given to fleet vehicles.  4 hour limit on EV charging. The OpConnect charging stations accept debit cards, credit cards, the Wright Express Fleet Fueling card, and the OpConnect card.",21.3333209,-157.9151068,"(21.3333209, -157.9151068)"
569,Grand Hyatt Kauai,1571 Poipu Rd.,Koloa,96756,Kauai,Free,The charging stations.are located in the corner of the guest parking closest to the hotel.,24/7,1,1,3,Free,"$25/day for overnight guests, additional $10 for Valet.",AeroVironment,Ask valet to activate. AeroVironment: (888) 833-2148,21.8773842,-159.4400527,"(21.8773842, -159.4400527)"
861,Dunes at Maui Lani Golf Course,1333 Mauilani Pkwy,Kahului,96732,Maui,Paid,Charging stations are located left of the parking lot fronting the driving range,6:00AM - 9:00PM,1,1,2,Fees vary,Free,Hitachi,"To use this charger, drivers need to be a member of  EVOhana. Visit http://evohana.com  or email info@jumpsmartmaui.com or call 808-270-6802",20.86693,-156.4743,"(20.86693, -156.4743)"
613,Queen Ka`ahumanu Center,275 West Kaahumanu Ave,Kahului,96732,Maui,Paid,The charging station is visible upon entrance of the shopping center from Kaâ€™ahumanu Ave.  It is on the right hand side of the parking lot.,24/7,1,4,3,Fees vary depending on the type of membership,Free,Hitachi,"To use this charger, drivers need to be a member of  EVOhana. Visit http://evohana.com  or email info@jumpsmartmaui.com or call 808-270-6802",20.88777,-156.4756,"(20.88777, -156.4756)"
429,Ohana Honolulu Airport Hotel,"3401 N. Nimitz Hwy,",Honolulu,96815,Oahu,Free,The charging stations are located next to the second building,24/7,2,2,2,Free,"25$ guest/overnight, $12 for military and HI residents with ID, no charge for day",AeroVironment,See attendant to activate Charger.,21.3372565,-157.917948,"(21.3372565, -157.917948)"
289,Princeville Shopping Center,5-4280 Kuhio Highway,Princeville,96722,Kauai,Paid,"The charging stations are located in the rear parking lot, next to public restrooms",24/7,2,2,2,per kWh/hr,Free,Volta,,22.2135956,-159.4743178,"(22.2135956, -159.4743178)"
285,Lihue Civic Center-Piikoi Building,4444 Rice Street,Lihue,96766,Kauai,Paid,1 charger is located on the east side of the building and 2 chargers are located at the south entrance (Rice Street side) of the building,24/7,3,3,2,"$2.00/hour, up to 4 hours",Free for EV Drivers,AeroVironment,Charging fee is $2/hour.  4 hour limit. Free parking for EV drivers.,21.9750959,-159.3691415,"(21.9750959, -159.3691415)"
575,Aina Haina Shopping Center,820-850 W Hind Drive,Honolulu,96821,Oahu,Paid,Charger is located in the parking lot.,24/7,1,2,2,$2/hour or any fraction thereof,Parking fees may apply,OpConnect,"One of the ports currently out of order. The OpConnect charging stations accept debit cards, credit cards, the Wright Express Fleet Fueling card, and the OpConnect card.",21.27819,-157.75476,"(21.27819, -157.75476)"
451,Stadium Marketplace,4561 Salt Lake Blvd,Honolulu,96818,Oahu,Paid,The charging stations are located between office max and checkers,7:00am-9:00pm,2,4,2,$2/hour or any fraction thereof,,OpConnect,"The OpConnect charging stations accept debit cards, credit cards, the Wright Express Fleet Fueling card, and the OpConnect card.",21.3650062,-157.9305367,"(21.3650062, -157.9305367)"
405,Kapolei Commons,4470 Kapolei Parkway,Kapolei,96707,Oahu,Paid,Next to Ruby Tuesday near Kapolei Parkway,24/7,1,2,2,"Mid day (9am-5pm) = $0.49/kWh, On-Peak (5pm-10pm) = $0.57/kWh, Off-Peak (10pm-9am) = $0.54/kWh",,Greenlots,CHAdeMO - Major Credit Cards or Greenlots Network,21.329,-158.0916,"(21.329, -158.0916)"
297,Bio-Beetle ECO Rental Cars,55 Amala Place,Kahului,96732,Maui,Free,By appointment and for Bio-Beetle customers only.,By appointment,1,1,1,Free,Free,Bring your own cordset/Level 1 Charger,"Allowing customers to plug in their own Level 1 Charger to outlet,  private to customers by appointment.",20.8949605,-156.4605913,"(20.8949605, -156.4605913)"
473,Waikiki Parc Hotel & Halekulani Hotel,2233 Helumoa Rd,Honolulu,96815,Oahu,Free,The charging stations are located on the 2nd floor.  Drive up the ramp after you pass the parking booth.,24/7,2,2,2,Free,Day visitors $3/20 minutes.  Overnight guest packages include parking. $20/day without package. $35/day for valet services.,Volta,The two hotels share this parking lot.  Green Car rents out electric and hybrid vehicles from the hotel.  Registered Guests with EVs can also charge.,21.2783056,-157.8307087,"(21.2783056, -157.8307087)"
397,Kaiser Permanente Mapunapuna,2828 Paa Street,Honolulu,96819,Oahu,Free,The charging station is in the parking lot.,"Mon-Fri 8:00am-5:00pm, Sat 8:00am-12:00pm",1,1,2,Free,1st 3 hours free.  $1 every hour thereafter.,Volta,,21.3458841,-157.8946895,"(21.3458841, -157.8946895)"
563,Walmart,3-3300 Kuhio Hwy,Lihue,96766,Kauai,Paid,The charging station is located at the first stall in front of the store.,24/7,1,1,2,Blink Plus: $1.00/hour.  Blink Basic: $1.50/hour.  Blink Guest: $2.00/hour,,Blink,,21.98252,-159.3653348,"(21.98252, -159.3653348)"
617,Pi`ilani Village Shopping Center,225 Piikea Ave,Kihei,96753,Maui,Paid,"Upon entering the shopping center, veer left and the charging station will be located on the right hand side, across from Minit Stop",24/7,1,4,3,Fees vary depending on the type of membership,Free,Hitachi,"To use this charger, drivers need to be a member of  EVOhana. Visit http://evohana.com  or email info@jumpsmartmaui.com or call 808-270-6802",20.75097,-156.44915,"(20.75097, -156.44915)"
489,Smith-Beretania Parking Structure,1170 Nuuanu,Honolulu,96817,Oahu,Free,Entrance on Beretania Street between Nuuanu Avenue and Smith Street.  Follow blue signs to Charger.,6:00am-12:00am,1,1,2,Free,Free for EV Drivers,ChargePoint,Free parking for EV Drivers.  Activate Charger with ChargePoint Network card or call the number listed on the front of the Charger for access.,21.3119549,-157.8606255,"(21.3119549, -157.8606255)"
469,Waikele Center,94-849 Lumiaina Street,Waipahu,96797,Oahu,Free,The charging stations are located by Gap and Brooks Brothers.,24/7,2,2,2,Free,Free,AeroVironment,1 charger currently not working (planning to repair); Call security to activate charger.,21.4002234096,-158.0070284576,"(21.4002234096, -158.0070284576)"
367,Cool Roof Store,575 Cooke Street,Honolulu,96813,Oahu,Paid,Green spot for EV Charging in front of store.  Tesla charger available in garage,"8:00am-5:00pm Mon-Fri, 8:00am-1:00pm Sat, or available 24/7 with a Charge Card",1,1,2,$4 per session plus $2 per 30 minutes,Free,"ChargePoint, Tesla","Charging fee is $4.00 per session plus $2.00/30 minutes.  Pay inside during operating hours, or you can use a ChargePoint Card.  The Tesla Charger is available in the garage only during business hours.",21.2994929,-157.85726,"(21.2994929, -157.85726)"
859,Dunes at Maui Lani Golf Course,1333 Mauilani Pkwy,Kahului,96732,Maui,Paid,Charging stations are located left of the parking lot fronting the driving range,6:00AM - 9:00PM,2,2,3,Fees vary depending on the type of membership,Free,Hitachi,"To use this charger, drivers need to be a member of  EVOhana. Visit http://evohana.com  or email info@jumpsmartmaui.com or call 808-270-6802",20.86693,-156.4743,"(20.86693, -156.4743)"
379,HMSA Center,818 Keeaumoku St.,Honolulu,96814,Oahu,Paid,The charging stations.are located on the ground floor of the parking lot,"Mon-Thurs 7:00am-12:00am, Fri 7:00am-2:00am, Sat 3:00pm-2:00pm, Sun 9:00am-12:00am",2,2,2,$2/hour or any fraction thereof,"0-30 minutes $1.50, each additional 30 minute $1.50, max $30",OpConnect,"The OpConnect charging stations accept debit cards, credit cards, the Wright Express Fleet Fueling card, and the OpConnect card.",21.296489,-157.8413107,"(21.296489, -157.8413107)"
747,Hawaiian Electric Ward Parking Lot,820 Ward Avenue,Honolulu,96814,Oahu,Paid,Parking Lot across Blaisdell Exhibition Hall,24/7,2,2,3,"Mid day (9am-5pm) = $0.49/kWh, On-Peak (5pm-10pm) = $0.57/kWh, Off-Peak (10pm-9am) = $0.54/kWh",,"Efacec, Greenlots","CHAdeMO, SAE - CCS",21.30072,-157.85189,"(21.30072, -157.85189)"
423,Moanalua Shopping Center,930 Valkenburgh St,Pearl City,96818,Oahu,Paid,The charging stations are located in front of Great Clips,7:00am-9:00pm,2,4,2,$2/hour or any fraction thereof,Free,OpConnect,"The OpConnect charging stations accept debit cards, credit cards, the Wright Express Fleet Fueling card, and the OpConnect card.",21.3413033,-157.9294558,"(21.3413033, -157.9294558)"
363,"Enterprise Rent-a-Car, Waikiki",151 Kaiulani St.,Honolulu,96815,Oahu,Paid,The charging station is located is in the back of the lot.,7:00am-8:00pm,1,2,2,$2/hour or any fraction thereof,Free,OpConnect,"Restricted to customers, when available.  Priority given to fleet vehicles.  4 hour limit on EV charging. The OpConnect charging stations accept debit cards, credit cards, the Wright Express Fleet Fueling card, and the OpConnect card.",21.2772166,-157.8247285,"(21.2772166, -157.8247285)"
409,Kapolei Shopping Center,590 Farrington Hwy,Kapolei,96707,Oahu,Paid,The charging station is located between Longs and Safeway in front of Subway,8:00am-10:00pm,1,2,2,$2/hour or any fraction thereof,,OpConnect,"The OpConnect charging stations accept debit cards, credit cards, the Wright Express Fleet Fueling card, and the OpConnect card.  Parking fees may apply.",21.3390928,-158.0794408,"(21.3390928, -158.0794408)"
711,Dole Plantation,64-1550 Kamehameha Hwy,Wahiawa,96786,Oahu,Paid,Fronting Kam Hwy- Located near parking lot entrance by Bus Stop,Parking lot hours: 10 am - 5 pm,1,1,3,"Mid day (9am-5pm) = $0.49/kWh, On-Peak (5pm-10pm) = $0.57/kWh, Off-Peak (10pm-9am) = $0.54/kWh",,"Efacec, OpConnect",DC fast charger supporting both CHAdeMO DCFC and SAE Combo DCFC (not simultaneously),21.5258,-158.0387,"(21.5258, -158.0387)"
719,Koolau Center,47-388 Hui Iwa Street,Kaneohe,96744,Oahu,Paid,Located near main shopping center entrance (across from McDonalds),24/7,1,1,3,"Mid day (9am-5pm) = $0.49/kWh, On-Peak (5pm-10pm) = $0.57/kWh, Off-Peak (10pm-9am) = $0.54/kWh",,"Efacec, OpConnect","CHAdeMO, SAE - CCS",21.436,-157.8258,"(21.436, -157.8258)"
707,Kulamalu Center,55 Kiopaa Street,Pukalani,96768,Maui,Paid,The charging stations are located near the Kamehameha school football field.  It is also where the Upcountry Farmers Market is held.,5:00AM - 9:00PM,4,4,3,Fees vary depending on the type of membership,Free,Hitachi,"To use this charger, drivers need to be a member of  EVOhana. Visit http://evohana.com  or email info@jumpsmartmaui.com or call 808-270-6802",20.82162,-156.32967,"(20.82162, -156.32967)"
871,Keauhou Shopping Center,78-6831 Alii Drive,Kailua Kona,96740,Hawaii,Free,.,24/7,1,1,2,Free,may apply,Blink,,19.57168,-155.9620099999,"(19.57168, -155.9620099999)"
305,Four Seasons Maui (Wailea),3900 Wailea Alanui,Wailea,96753,Maui,Paid,Self-park at spaces 167 or 169 (at end of row on left) in Valet/Self Park garage. Move the cone thatâ€™s there to prevent non-EV parking.,24/7,1,2,2,$2/hour or any fraction thereof,"Free for day guests, $20/day for overnight guests",OpConnect,"The OpConnect charging stations accept debit cards, credit cards, the Wright Express Fleet Fueling card, and the OpConnect card.",20.6802398,-156.44246,"(20.6802398, -156.44246)"
883,Waimea KTA,65-1158 Mamalahoa Hwy,Waimea,96743,Hawaii,Paid,In new KTA parking lot,24/7,1,1,3,"Mid day (9am-5pm) = $0.51/kWh, On-Peak (5pm-10pm) = $0.63/kWh, Off-Peak (10pm-9am) = $0.61/kWh",none,Greenlots,Major Credit Cards or Greenlots Network,20.02252,-155.66733,"(20.02252, -155.66733)"
571,"Maui County Building, Wailuku",200 South High Street,Wailuku,96793,Maui,Paid,"The chargers are located directly in front of County Building, outdoor lot. The space is painted green and there is a sign.",24/7,1,1,2,Fees vary depending on the type of membership,Free,Hitachi,"To use this charger, drivers need to be a member of  EVOhana. Visit http://evohana.com  or email info@jumpsmartmaui.com or call 808-270-6802",20.88532,-156.504045,"(20.88532, -156.504045)"
383,Holiday Inn Beachcomber,2300 Kalakaua Ave,Honolulu,96815,Oahu,Free,The charging stations is located in the valet,24/7,1,1,2,Free,$30.00/24hours. $15.00/24hours for HI residents.$3.50/half hour,AeroVironment,,21.2782519,-157.827337,"(21.2782519, -157.827337)"
303,Enterprise Rent A Car,40 Hana Hwy,Kahului,96732,Maui,Free,The charging station is located across the Hana Hwy from the Mercedes dealership. Access from the Hana Hwy. Since this is a rental car location access to the one charge port is by availability only. This charge spot is next to Maui Mall,7:00am-5:00pm,1,1,2,Free,Free,AeroVironment,"Restricted to customers, when available.  Priority given to fleet vehicles.",20.8917119,-156.462988,"(20.8917119, -156.462988)"
799,Walter Cameron Center Station,95 Mahalani St.,Wailuku,96793,Maui,Paid,"Upon entering the J. Walter Cameron Center, take an immediate right and follow it all the way down towards the Police Station., the chargers are located on the right hand side, facing Mahalani Street",24/7,4,4,3,Fees vary depending on the type of membership,Free,Hitachi,"To use this charger, drivers need to be a member of  EVOhana. Visit http://evohana.com  or email info@jumpsmartmaui.com or call 808-270-6802",20.887,-156.48835,"(20.887, -156.48835)"
331,Walmart,101 Pakaula Street,Kahului,96732,Maui,Paid,The charging stations are located in the back by the garden center,24/7,1,1,2,Blink Plus: $1.00/hour.  Blink Basic: $1.50/hour.  Blink Guest: $2.00/hour,Free,Blink,,20.8779003,-156.4558094,"(20.8779003, -156.4558094)"
441,Pearlridge Shopping Center (downtown),98-1005 Moanalua Rd #231,Aiea,96701,Oahu,Free,1 Volta charging station is located near the downtown entrance fronting the Cold Stone and the theaters. Look for the Volta sign.,"Mon-Sat 10:00am-9:00pm, Sun 10:00am-6:00pm",1,1,2,Free,Free for customers,Volta,,21.3821698647,-157.9399466513,"(21.3821698647, -157.9399466513)"
717,Pukalani Terrace Center,55 Pukalani Street,Pukalani,96768,Maui,Paid,The charging station is located next to Bank of Hawaii and Ace Hardware store.,24/7,4,4,3,Fees vary depending on the type of membership,Free,Hitachi,"To use this charger, drivers need to be a member of  EVOhana. Visit http://evohana.com  or email info@jumpsmartmaui.com or call 808-270-6802",20.83744,-156.34242,"(20.83744, -156.34242)"
477,Waikiki Trade Center,2255 Kuhio Avenue,Honolulu,96815,Oahu,Free,The charging stations are located on the 6th floor,24/7,2,2,2,Free,"$4.00/half hour, $6.00 Early-bird special (6am-9am, $11.00 regular flat rate (5pm), Validations offered within the building",AeroVironment,See Parking Management Office for FOB key to activate the charging station.,21.2797361,-157.8267701,"(21.2797361, -157.8267701)"
437,Outrigger Reef,2169 Kalia Road,Honolulu,96815,Oahu,Free,"The charging stations are located at self-parking in garage outside valet, basement level",24/7,1,1,2,Free,"$25.00 overnight, $10.00 HI residents, but rate will go up on 12/22/2012 (TBA)",AeroVironment,,21.2786974,-157.8325599,"(21.2786974, -157.8325599)"
785,Lahaina Aquatic Center,245 Shaw Street,Lahaina,96761,Maui,Paid,Across from Lahaina Recreation,24/7,2,2,3,Fees vary depending on the type of membership,Free,Hitachi,"To use this charger, drivers need to be a member of  EVOhana. Visit http://evohana.com  or email info@jumpsmartmaui.com or call 808-270-6802",20.86956,-156.67145,"(20.86956, -156.67145)"
431,Ohana Waikiki East,150 Kaiulani Avenue,Honolulu,96815,Oahu,Free,One charger is located on the first floor near entrance at 150 Kaiulani Ave.  A second charger is in front of the corporate office (the same building) on 2375 Kuhio Ave.,24/7,2,2,2,Free,"Guests $25.00 overnight. HI residents $12.00 overnight, $7.00 flat rate available on Mondays between 5am-12pm. First 3 hours for free with Dukes validation, 3$/half hour",AeroVironment,Restricted use to Guests.  Need FOB key to activate Charger in self-parking.,21.2778509,-157.825047,"(21.2778509, -157.825047)"
351,Davies Pacific Center,841 Bishop Street,Honolulu,96813,Oahu,Free,The charger is located on the 6th floor,24/7,2,2,2,"1st 2 hours free, $5 every additional hour",parking fees may apply,SemaConnect,"1st 2 hours of charging free, $5 every additional hour.  Use your smart phone to charge by credit card at the Charger, instructions on the screen.",21.3077429,-157.8625841,"(21.3077429, -157.8625841)"
415,Laie Village Center,55-510 Kamehameha Hwy,Laie,96762,Oahu,Paid,The charging stations are located in front parking lot,8:00am-7:00pm,2,2,2,$2.20/hr,Free,OpConnect,,21.6467349,-157.9217687,"(21.6467349, -157.9217687)"
867,Waianae Shopping Mall,86-120 Farrington Highway,Waianae,96792,Oahu,Paid,Mall south entrance behind Burger King,24/7,1,1,3,"Mid day (9am-5pm) = $0.49/kWh, On-Peak (5pm-10pm) = $0.57/kWh, Off-Peak (10pm-9am) = $0.54/kWh",,OpConnect,Accepts credit cards or OpConnect Network,21.4356,-158.1839,"(21.4356, -158.1839)"
257,Four Seasons Resort Hualalai,72-100 Kaupulehu Dr.,Kailua-Kona,96740,Hawaii,Paid,"The charging stations are located in the Golf Crescent self-park lot, but EV drivers must Valet to utilize them.",24/7,2,2,2,$2/hour or any fraction thereof,"Free Self-Park and Valet during the day,  Registered Guests have a $20/night parking fee.",OpConnect,"EV drivers must Valet to utilize charging stations.  Priority is for Registered Guests, but restaurant guests are welcome to charge at no cost.  4 hour limit on EV charging.  Parking fees may apply.",19.8271119,-155.9913758,"(19.8271119, -155.9913758)"
705,Hope Chapel Kihei,300  East Welakahau Street,Kihei,96753,Maui,Paid,The charging stations are located at the last row of the parking lot under the covering.,24/7,4,4,3,Fees vary depending on the type of membership,Free,Hitachi,"To use this charger, drivers need to be a member of  EVOhana. Visit http://evohana.com  or email info@jumpsmartmaui.com or call 808-270-6802",20.73837,-156.44658,"(20.73837, -156.44658)"
347,Bishop Museum,1525 Bernice St.,Honolulu,96817,Oahu,Paid,The chargers are located in the rear parking area,Wed-Mon 9:00am-5:00pm,2,4,2,$2/hour or any fraction thereof,Free,OpConnect,"4 hour limit.  The OpConnect charging stations accept debit cards, credit cards, the Wright Express Fleet Fueling card, and the OpConnect card.  Parking fees may apply.",21.3331678,-157.8693335,"(21.3331678, -157.8693335)"
619,Ma`alaea Triangle (Maui Ocean Center),192 Maalaea Rd,Wailuku,96793,Maui,Paid,Enter on Kapoli Street (Next to the Maui Golf and Sports Park). Head towards the Maui Ocean Center and the chargers will be on the right hand side next to the wall.,5:00 AM - 9:00 PM,1,4,3,Fees vary depending on the type of membership,Free,Hitachi,"To use this charger, drivers need to be a member of  EVOhana. Visit http://evohana.com  or email info@jumpsmartmaui.com or call 808-270-6802",20.7925209033,-156.5123060345,"(20.7925209033, -156.5123060345)"
893,Haiku Community Center,Hana Highway at Pilialoha St,Haiku,96708,Maui,Paid,by the recycling center,24/7,2,2,3,Fees vary depending on the type of membership,Free,Hitachi,"To use this charger, drivers need to be a member of  EVOhana. Visit http://evohana.com  or email info@jumpsmartmaui.com or call 808-270-6802",20.9299,-156.32005,"(20.9299, -156.32005)"
355,Double Tree by Hilton Alana Waikiki Hotel,1956 Ala Moana Blvd,Honolulu,96815,Oahu,Paid,The charging stations are located in valet,24/7,2,2,2,Flat $5/Session,Subject to Valet Rates,Blink,Charge fee is a flat $5/session.  Green Car rents out electric and hybrid vehicles from the hotel.  Registered Guests with EVs can also charge.  Must Valet to charge EV.,21.285758,-157.8340547,"(21.285758, -157.8340547)"
403,Kakaako Piano Lot Parking Facility,160 Ahui Street,Honolulu,96813,Oahu,Paid,"The charging station is located next to Childrenâ€™s Discovery Center, right off Ahui St. Ewa side of the lot",24/7,1,1,2,"$1/session, plus $1/hour","Free for EV Drivers while Charging.  $2/2 hours, 2-10 hours $3, All day is $5",Shorepower,"Charging fee is $1/session, plus $1/hour. Free parking for EV Drivers while Charging.  DRIVERS MUST MOVE THEIR EV OUT OF CHARGING STATION SPOT WHEN CHARGING IS COMPLETE.",21.293448,-157.8605849,"(21.293448, -157.8605849)"
493,Hale Pauahi Parking Structure,155 N Beretania St.,Honolulu,96817,Oahu,Free,The entrance is on Beretania Street.  Follow blue signs to Charger.,6:00am-12:00am,1,1,2,Free,Free for EV Drivers,ChargePoint,Activate with a ChargePoint Network card or call the number listed on the front of the charging station for access.,21.3135816,-157.8616886,"(21.3135816, -157.8616886)"
301,Maui Nui Golf Club,1345 Piilani Highway,Kihei,96753,Maui,Paid,Visit the Pro Shop or restaurant & attendant will give you access to the charging station.,During Golfing hours: 6:30 am to 6:00 pm Mon-Sun and Restaurant hours:  8:00am to 10:00 pm. Closed after 10:00 pm.,1,1,2,$12 flat fee per session,Free,AeroVironment,This charging station is for golfers only,20.740415,-156.442964,"(20.740415, -156.442964)"
271,Kona International Airport at Keahole,73-200 Kupipi street,Kailua-Kona,96740,Hawaii,Paid,1st floor of parking structure across from entrance gate,24/7,2,2,2,$7/session,"24 hours $10.  16-30 minutes is $1, 31 minutes- 60 minutes $2, 61 minutes-2 hours $5, 2 hours-3 hours $8.",Recharge Power,No overnight parking at EV Charger. Parking rates may apply. FYI Voltage is 240/30amps,19.7393796,-156.0410098,"(19.7393796, -156.0410098)"
459,Town Center of Mililani,95-1249 Meheula Pkwy,Mililani,96789,Oahu,Paid,The charging stations are located In front of Baskin Robins,7:00am-10:00pm,1,2,2,$2/hour or any fraction thereof,,OpConnect,"The OpConnect charging stations accept debit cards, credit cards, the Wright Express Fleet Fueling card, and the OpConnect card.",21.4529378,-158.0076693,"(21.4529378, -158.0076693)"
595,Maui Tropical Plantation,1670 Honoapiilani Hwy,Wailuku,96793,Maui,Paid,"Upon entering the plantation, head straight ahead, the chargers are in the first 2 parking aisles on the left hand side.",9:00AM - 9:00PM,4,4,3,Fees vary depending on the type of membership,Free,Hitachi,"To use this charger, drivers need to be a member of  EVOhana. Visit http://evohana.com  or email info@jumpsmartmaui.com or call 808-270-6802",20.84899,-156.5064499999,"(20.84899, -156.5064499999)"
479,Water Front Plaza,500 Ala Moana Blvd.,Honolulu,96813,Oahu,Free,The Charger is located in the basement level of the parking garage just off the Waterfront Plaza aka Restaurant Row Pohukaina Street entrance.  Our signs and parking lot stencils are being fabricated,24/7,3,3,2,"1st 2 hours free, $5 every additional hour",parking fees may apply,SemaConnect,"Charge fee is 2 hours free, $5 every additional hour.  A 2 hour limit may be enforced when demand rises.  Use your smart phone to charge by credit card at the charger, instructions on the screen.",21.3013068,-157.8623317,"(21.3013068, -157.8623317)"
551,Marriott Kauai Lagoons,3325 Holokawelu Way,Lihue,96766,Kauai,Paid,"The charging station is located outside building B, 20 stalls down from the front desk.",24/7,1,1,2,,,AeroVironment,Restricted to hotel guests. Charge fees are charged to the room.,21.9811111,-159.3711111,"(21.9811111, -159.3711111)"
505,Ala Moana Hotel,410 Atkinson Dr.,Honolulu,96814,Oahu,Free,Basement floor by the elevator in the self parking lot.,24/7,4,4,2,Free,"$6 with Restaurant Validation.  $20/day Self Park, $25/day Valet.",AeroVironment,,21.2901711,-157.8393701,"(21.2901711, -157.8393701)"
471,Waikiki Beach Marriott,2552 Kalakaua Avenue,Honolulu,96815,Oahu,Free,"One Charger is on 3rd floor self parking garage, second Charger is in valet",24/7,2,2,2,Free,"$32.00 resort fee includes parking for registered guests. $37.00 valet .services, $4.00/half hour. Validations are offered at the hotel poolside bar & certain restaurants for 2-4 hours",AeroVironment,After parking use nearby phone and contact security who will use a motion key to activate the charger.,21.2728669,-157.8231051,"(21.2728669, -157.8231051)"
539,Walmart (Down for maintenance),700 Keeaumoku Street,Honolulu,96813,Oahu,Paid,The charging station is located on Level 1 Section 02 of the parking garage.,24/7,1,2,2,$0.69/kWh for members and $0.79 /kWh for non-members,Free,Blink,,21.2949185,-157.8419603,"(21.2949185, -157.8419603)"
533,Koko Marina Shopping Center,7192 Kalanianaole Hwy,Honolulu,96825,Oahu,Free,"On the floor level, in front of Century All Islands","9:00am-11:00pm on weekdays, 9:00AM- 12PM on weekends",1,1,2,Free,Free,Volta,Parking rates may apply.,21.2778781,-157.7056172,"(21.2778781, -157.7056172)"
739,7-Eleven Hawaii Kai,515 Pepeekeo St,Honolulu,96825,Oahu,Paid,7-11 near Hawaii Kai Drive entrance,24/7,1,1,3,"Mid day (9am-5pm) = $0.49/kWh, On-Peak (5pm-10pm) = $0.57/kWh, Off-Peak (10pm-9am) = $0.54/kWh",,OpConnect,CHAdeMO and CCS DC fast charging,21.2942,-157.71054,"(21.2942, -157.71054)"
425,New City Nissan,2295 North King Street,Honolulu,96819,Oahu,Free,3 charging stalls are located in front right of the building.,6:30am-8:00pm,1,1,3,Free for all Nissan Leafs,Free,AeroVironment,Restricted to Leafs only.,21.3355002,-157.8825108,"(21.3355002, -157.8825108)"
439,Outrigger Waikiki,2335 Kalakaua Avenue,Honolulu,96815,Oahu,Free,"The charging station is located on basement level of garage, valet",24/7,1,1,2,Free,$35.00 for guests and HI residents overnight. $4.00/half hour,AeroVironment,,21.2772136,-157.8272715,"(21.2772136, -157.8272715)"
385,Honolulu International Airport,300 Rodgers Boulevard,Honolulu,96819,Oahu,Paid,"The charging station is located in the public parking lot between interisland and main parking structures, on the 1st floor",24/7,1,1,2,Flat $7/session,$15.00/day. $3.00/2hours,Recharge Power,Charging fee is a flat $7/session.,21.332602,-157.9190477,"(21.332602, -157.9190477)"
